CCSDS_OMM_VERS = 2.0
CREATION_DATE  = 
ORIGINATOR     = 

OBJECT_NAME    = STARLINK-35343
OBJECT_ID      = 2026-003A
CENTER_NAME    = EARTH
REF_FRAME      = TEME
TIME_SYSTEM    = UTC
MEAN_ELEMENT_THEORY = SGP/SGP4

EPOCH          = 2026-02-06T10:13:17.973408
MEAN_MOTION    = 15.50568400
ECCENTRICITY   = .00013675
INCLINATION    = 42.9991
RA_OF_ASC_NODE = 44.4001
ARG_OF_PERICENTER = 283.9640
MEAN_ANOMALY   = 76.1068

EPHEMERIS_TYPE = 0
CLASSIFICATION_TYPE = U
NORAD_CAT_ID   = 67334
ELEMENT_SET_NO = 999
REV_AT_EPOCH   = 403
BSTAR          = .17163292E-2
MEAN_MOTION_DOT = .101625E-2
MEAN_MOTION_DDOT = 0

CCSDS_OMM_VERS = 2.0
CREATION_DATE  = 
ORIGINATOR     = 

OBJECT_NAME    = STARLINK-36486
OBJECT_ID      = 2026-003B
CENTER_NAME    = EARTH
REF_FRAME      = TEME
TIME_SYSTEM    = UTC
MEAN_ELEMENT_THEORY = SGP/SGP4

EPOCH          = 2026-02-06T10:13:01.498656
MEAN_MOTION    = 15.48538489
ECCENTRICITY   = .00044042
INCLINATION    = 42.9959
RA_OF_ASC_NODE = 44.3973
ARG_OF_PERICENTER = 236.6450
MEAN_ANOMALY   = 123.3988

EPHEMERIS_TYPE = 0
CLASSIFICATION_TYPE = U
NORAD_CAT_ID   = 67335
ELEMENT_SET_NO = 999
REV_AT_EPOCH   = 403
BSTAR          = -.29953399E-1
MEAN_MOTION_DOT = -.1483206E-1
MEAN_MOTION_DDOT = 0

CCSDS_OMM_VERS = 2.0
CREATION_DATE  = 
ORIGINATOR     = 

OBJECT_NAME    = STARLINK-36480
OBJECT_ID      = 2026-003C
CENTER_NAME    = EARTH
REF_FRAME      = TEME
TIME_SYSTEM    = UTC
MEAN_ELEMENT_THEORY = SGP/SGP4

EPOCH          = 2026-02-06T00:55:45.142752
MEAN_MOTION    = 15.50663129
ECCENTRICITY   = .00010455
INCLINATION    = 42.9978
RA_OF_ASC_NODE = 46.6537
ARG_OF_PERICENTER = 232.8550
MEAN_ANOMALY   = 127.2215

EPHEMERIS_TYPE = 0
CLASSIFICATION_TYPE = U
NORAD_CAT_ID   = 67336
ELEMENT_SET_NO = 999
REV_AT_EPOCH   = 397
BSTAR          = .24913102E-2
MEAN_MOTION_DOT = .149074E-2
MEAN_MOTION_DDOT = 0

CCSDS_OMM_VERS = 2.0
CREATION_DATE  = 
ORIGINATOR     = 

OBJECT_NAME    = STARLINK-36410
OBJECT_ID      = 2026-003D
CENTER_NAME    = EARTH
REF_FRAME      = TEME
TIME_SYSTEM    = UTC
MEAN_ELEMENT_THEORY = SGP/SGP4

EPOCH          = 2026-02-05T21:49:50.946816
MEAN_MOTION    = 15.50353528
ECCENTRICITY   = .0004801
INCLINATION    = 42.9979
RA_OF_ASC_NODE = 47.4057
ARG_OF_PERICENTER = 228.1668
MEAN_ANOMALY   = 131.8783

EPHEMERIS_TYPE = 0
CLASSIFICATION_TYPE = U
NORAD_CAT_ID   = 67337
ELEMENT_SET_NO = 999
REV_AT_EPOCH   = 395
BSTAR          = .22321E-2
MEAN_MOTION_DOT = .131813E-2
MEAN_MOTION_DDOT = 0

CCSDS_OMM_VERS = 2.0
CREATION_DATE  = 
ORIGINATOR     = 

OBJECT_NAME    = STARLINK-36413
OBJECT_ID      = 2026-003E
CENTER_NAME    = EARTH
REF_FRAME      = TEME
TIME_SYSTEM    = UTC
MEAN_ELEMENT_THEORY = SGP/SGP4

EPOCH          = 2026-02-06T07:05:50.072352
MEAN_MOTION    = 15.50449414
ECCENTRICITY   = .00029029
INCLINATION    = 42.9982
RA_OF_ASC_NODE = 45.1422
ARG_OF_PERICENTER = 314.4573
MEAN_ANOMALY   = 45.6049

EPHEMERIS_TYPE = 0
CLASSIFICATION_TYPE = U
NORAD_CAT_ID   = 67338
ELEMENT_SET_NO = 999
REV_AT_EPOCH   = 401
BSTAR          = .2046219E-2
MEAN_MOTION_DOT = .121022E-2
MEAN_MOTION_DDOT = 0

CCSDS_OMM_VERS = 2.0
CREATION_DATE  = 
ORIGINATOR     = 

OBJECT_NAME    = STARLINK-36451
OBJECT_ID      = 2026-003F
CENTER_NAME    = EARTH
REF_FRAME      = TEME
TIME_SYSTEM    = UTC
MEAN_ELEMENT_THEORY = SGP/SGP4

EPOCH          = 2026-02-06T14:00:01.999872
MEAN_MOTION    = 15.50561182
ECCENTRICITY   = .0001315
INCLINATION    = 43.0000
RA_OF_ASC_NODE = 43.4547
ARG_OF_PERICENTER = 280.4834
MEAN_ANOMALY   = 249.1502

EPHEMERIS_TYPE = 0
CLASSIFICATION_TYPE = U
NORAD_CAT_ID   = 67339
ELEMENT_SET_NO = 999
REV_AT_EPOCH   = 567
BSTAR          = .16459369E-2
MEAN_MOTION_DOT = .97365E-3
MEAN_MOTION_DDOT = 0

CCSDS_OMM_VERS = 2.0
CREATION_DATE  = 
ORIGINATOR     = 

OBJECT_NAME    = STARLINK-36339
OBJECT_ID      = 2026-003G
CENTER_NAME    = EARTH
REF_FRAME      = TEME
TIME_SYSTEM    = UTC
MEAN_ELEMENT_THEORY = SGP/SGP4

EPOCH          = 2026-02-06T10:10:19.851168
MEAN_MOTION    = 15.50617571
ECCENTRICITY   = .00016582
INCLINATION    = 42.9995
RA_OF_ASC_NODE = 44.3831
ARG_OF_PERICENTER = 243.7093
MEAN_ANOMALY   = 116.3597

EPHEMERIS_TYPE = 0
CLASSIFICATION_TYPE = U
NORAD_CAT_ID   = 67340
ELEMENT_SET_NO = 999
REV_AT_EPOCH   = 403
BSTAR          = .18854785E-2
MEAN_MOTION_DOT = .112021E-2
MEAN_MOTION_DDOT = 0

CCSDS_OMM_VERS = 2.0
CREATION_DATE  = 
ORIGINATOR     = 

OBJECT_NAME    = STARLINK-36453
OBJECT_ID      = 2026-003H
CENTER_NAME    = EARTH
REF_FRAME      = TEME
TIME_SYSTEM    = UTC
MEAN_ELEMENT_THEORY = SGP/SGP4

EPOCH          = 2026-02-06T08:37:04.797120
MEAN_MOTION    = 15.50572424
ECCENTRICITY   = .00015572
INCLINATION    = 42.9999
RA_OF_ASC_NODE = 44.7554
ARG_OF_PERICENTER = 271.9957
MEAN_ANOMALY   = 88.0725

EPHEMERIS_TYPE = 0
CLASSIFICATION_TYPE = U
NORAD_CAT_ID   = 67341
ELEMENT_SET_NO = 999
REV_AT_EPOCH   = 402
BSTAR          = .14953051E-2
MEAN_MOTION_DOT = .88356E-3
MEAN_MOTION_DDOT = 0

CCSDS_OMM_VERS = 2.0
CREATION_DATE  = 
ORIGINATOR     = 

OBJECT_NAME    = STARLINK-36432
OBJECT_ID      = 2026-003J
CENTER_NAME    = EARTH
REF_FRAME      = TEME
TIME_SYSTEM    = UTC
MEAN_ELEMENT_THEORY = SGP/SGP4

EPOCH          = 2026-02-06T10:09:20.595456
MEAN_MOTION    = 15.50583495
ECCENTRICITY   = .00013463
INCLINATION    = 43.0006
RA_OF_ASC_NODE = 44.3770
ARG_OF_PERICENTER = 261.3601
MEAN_ANOMALY   = 98.7106

EPHEMERIS_TYPE = 0
CLASSIFICATION_TYPE = U
NORAD_CAT_ID   = 67342
ELEMENT_SET_NO = 999
REV_AT_EPOCH   = 403
BSTAR          = .1955475E-2
MEAN_MOTION_DOT = .116111E-2
MEAN_MOTION_DDOT = 0

CCSDS_OMM_VERS = 2.0
CREATION_DATE  = 
ORIGINATOR     = 

OBJECT_NAME    = STARLINK-36458
OBJECT_ID      = 2026-003K
CENTER_NAME    = EARTH
REF_FRAME      = TEME
TIME_SYSTEM    = UTC
MEAN_ELEMENT_THEORY = SGP/SGP4

EPOCH          = 2026-02-05T10:57:28.486944
MEAN_MOTION    = 15.50629739
ECCENTRICITY   = .00009123
INCLINATION    = 42.9996
RA_OF_ASC_NODE = 50.0243
ARG_OF_PERICENTER = 192.6833
MEAN_ANOMALY   = 167.4004

EPHEMERIS_TYPE = 0
CLASSIFICATION_TYPE = U
NORAD_CAT_ID   = 67343
ELEMENT_SET_NO = 999
REV_AT_EPOCH   = 388
BSTAR          = .2369199E-2
MEAN_MOTION_DOT = .141442E-2
MEAN_MOTION_DDOT = 0

CCSDS_OMM_VERS = 2.0
CREATION_DATE  = 
ORIGINATOR     = 

OBJECT_NAME    = STARLINK-36422
OBJECT_ID      = 2026-003L
CENTER_NAME    = EARTH
REF_FRAME      = TEME
TIME_SYSTEM    = UTC
MEAN_ELEMENT_THEORY = SGP/SGP4

EPOCH          = 2026-02-06T08:35:35.778336
MEAN_MOTION    = 15.50607378
ECCENTRICITY   = .00013441
INCLINATION    = 43.0008
RA_OF_ASC_NODE = 44.7470
ARG_OF_PERICENTER = 271.4656
MEAN_ANOMALY   = 88.6051

EPHEMERIS_TYPE = 0
CLASSIFICATION_TYPE = U
NORAD_CAT_ID   = 67344
ELEMENT_SET_NO = 999
REV_AT_EPOCH   = 402
BSTAR          = .15014371E-2
MEAN_MOTION_DOT = .88836E-3
MEAN_MOTION_DDOT = 0

CCSDS_OMM_VERS = 2.0
CREATION_DATE  = 
ORIGINATOR     = 

OBJECT_NAME    = STARLINK-35676
OBJECT_ID      = 2026-003M
CENTER_NAME    = EARTH
REF_FRAME      = TEME
TIME_SYSTEM    = UTC
MEAN_ELEMENT_THEORY = SGP/SGP4

EPOCH          = 2026-02-06T08:34:49.190592
MEAN_MOTION    = 15.50889711
ECCENTRICITY   = .00098534
INCLINATION    = 43.0004
RA_OF_ASC_NODE = 44.7416
ARG_OF_PERICENTER = 288.4672
MEAN_ANOMALY   = 71.5117

EPHEMERIS_TYPE = 0
CLASSIFICATION_TYPE = U
NORAD_CAT_ID   = 67345
ELEMENT_SET_NO = 999
REV_AT_EPOCH   = 402
BSTAR          = .15650086E-2
MEAN_MOTION_DOT = .93772E-3
MEAN_MOTION_DDOT = 0

