STARLINK-35343          
1 67334U 26003A   26037.42590247  .00101625  00000+0  17163-2 0  9999
2 67334  42.9991  44.4001 0001367 283.9640  76.1068 15.50568400  4030
STARLINK-36486          
1 67335U 26003B   26037.42571179 -.01483206  00000+0 -29953-1 0  9993
2 67335  42.9959  44.3973 0004404 236.6450 123.3988 15.48538489  4038
STARLINK-36480          
1 67336U 26003C   26037.03871693  .00149074  00000+0  24913-2 0  9996
2 67336  42.9978  46.6537 0001045 232.8550 127.2215 15.50663129  3979
STARLINK-36410          
1 67337U 26003D   26036.90961744  .00131813  00000+0  22321-2 0  9992
2 67337  42.9979  47.4057 0004801 228.1668 131.8783 15.50353528  3956
STARLINK-36413          
1 67338U 26003E   26037.29571843  .00121022  00000+0  20462-2 0  9998
2 67338  42.9982  45.1422 0002902 314.4573  45.6049 15.50449414  4011
STARLINK-36451          
1 67339U 26003F   26037.58335648  .00097365  00000+0  16459-2 0  9995
2 67339  43.0000  43.4547 0001315 280.4834 249.1502 15.50561182  5678
STARLINK-36339          
1 67340U 26003G   26037.42384087  .00112021  00000+0  18855-2 0  9990
2 67340  42.9995  44.3831 0001658 243.7093 116.3597 15.50617571  4038
STARLINK-36453          
1 67341U 26003H   26037.35908330  .00088356  00000+0  14953-2 0  9994
2 67341  42.9999  44.7554 0001557 271.9957  88.0725 15.50572424  4023
STARLINK-36432          
1 67342U 26003J   26037.42315504  .00116111  00000+0  19555-2 0  9992
2 67342  43.0006  44.3770 0001346 261.3601  98.7106 15.50583495  4038
STARLINK-36458          
1 67343U 26003K   26036.45657971  .00141442  00000+0  23692-2 0  9994
2 67343  42.9996  50.0243 0000912 192.6833 167.4004 15.50629739  3880
STARLINK-36422          
1 67344U 26003L   26037.35805299  .00088836  00000+0  15014-2 0  9999
2 67344  43.0008  44.7470 0001344 271.4656  88.6051 15.50607378  4026
STARLINK-35676          
1 67345U 26003M   26037.35751378  .00093772  00000+0  15650-2 0  9999
2 67345  43.0004  44.7416 0009853 288.4672  71.5117 15.50889711  4029
